NORAD_CAT_ID,OBJECT_NAME,OBJECT_TYPE,EPOCH,MEAN_MOTION,ECCENTRICITY,INCLINATION,RA_OF_ASC_NODE,ARG_OF_PERICENTER,MEAN_ANOMALY,BSTAR,MEAN_MOTION_DOT,MEAN_MOTION_DDOT,TLE_LINE0,TLE_LINE1,TLE_LINE2,SEMIMAJOR_AXIS,PERIOD,APOGEE,PERIGEE,DECAYED
50203.0,STARLINK-3257,PAYLOAD,2023-03-28 05:17:37,15.0888074,0.0001166,53.2158,36.0632,120.9042,239.2065,0.0010145,0.00015913,0.0,0 STARLINK-3257,1 50203U 21125AZ  23087.22057255  .00015913  00000-0  10145-2 0  9991,2 50203  53.2158  36.0632 0001166 120.9042 239.2065 15.08880740 74131,6917.756,95.435,540.427,538.814,0.0
50203.0,STARLINK-3257,PAYLOAD,2023-03-29 00:22:13,15.08862463,0.0001512,53.217,32.4947,142.3705,217.7393,-0.00016577,-2.927e-05,0.0,0 STARLINK-3257,1 50203U 21125AZ  23088.01543769 -.00002927  00000-0 -16577-3 0  9998,2 50203  53.2170  32.4947 0001512 142.3705 217.7393 15.08862463 71115,6917.812,95.436,540.723,538.631,0.0
50203.0,STARLINK-3257,PAYLOAD,2023-03-29 06:43:46,15.08861904,0.0001127,53.2163,31.3055,124.2397,235.8702,-1.8659e-05,-5.85e-06,0.0,0 STARLINK-3257,1 50203U 21125AZ  23088.28039632 -.00000585  00000-0 -18659-4 0  9998,2 50203  53.2163  31.3055 0001127 124.2397 235.8702 15.08861904 74299,6917.813,95.436,540.458,538.899,0.0
50203.0,STARLINK-3257,PAYLOAD,2023-03-30 01:48:24,15.08839883,9.12e-05,53.2151,27.7358,126.627,233.4806,-8.2459e-05,-1.6e-05,0.0,0 STARLINK-3257,1 50203U 21125AZ  23089.07527978 -.00001600  00000-0 -82459-4 0  9999,2 50203  53.2151  27.7358 0000912 126.6270 233.4806 15.08839883 71273,6917.881,95.438,540.377,539.115,0.0
50203.0,STARLINK-3257,PAYLOAD,2023-03-30 12:56:06,15.08840067,8.86e-05,53.216,25.6566,105.3832,254.7258,0.00029957,4.483e-05,0.0,0 STARLINK-3257,1 50203U 21125AZ  23089.53896487  .00004483  00000-0  29957-3 0  9997,2 50203  53.2160  25.6566 0000886 105.3832 254.7258 15.08840067 74488,6917.88,95.438,540.358,539.132,0.0
50203.0,STARLINK-3257,PAYLOAD,2023-03-31 04:49:57,15.08862629,0.0001166,53.2162,22.6827,83.9697,276.1428,0.0006847,0.00010633,0.0,0 STARLINK-3257,1 50203U 21125AZ  23090.20135796  .00010633  00000-0  68470-3 0  9999,2 50203  53.2162  22.6827 0001166  83.9697 276.1428 15.08862629 71447,6917.811,95.436,540.483,538.87,0.0
50203.0,STARLINK-3257,PAYLOAD,2023-03-31 19:08:26,15.08843419,0.0001365,53.2167,20.007,78.9551,281.1595,8.544e-05,1.072e-05,0.0,0 STARLINK-3257,1 50203U 21125AZ  23090.79752319  .00001072  00000-0  85440-4 0  9993,2 50203  53.2167  20.0070 0001365  78.9551 281.1595 15.08843419 71535,6917.87,95.437,540.679,538.791,0.0
50203.0,STARLINK-3257,PAYLOAD,2023-04-01 04:40:44,15.08841722,0.000111,53.2171,18.2202,69.2285,290.8826,0.00036637,5.548e-05,0.0,0 STARLINK-3257,1 50203U 21125AZ  23091.19496451  .00005548  00000-0  36637-3 0  9995,2 50203  53.2171  18.2202 0001110  69.2285 290.8826 15.08841722 74735,6917.875,95.437,540.508,538.972,0.0
50203.0,STARLINK-3257,PAYLOAD,2023-04-02 04:31:32,15.08845858,0.0001145,53.2172,13.7605,63.9114,296.1996,0.00093172,0.00014574,0.0,0 STARLINK-3257,1 50203U 21125AZ  23092.18857107  .00014574  00000-0  93172-3 0  9990,2 50203  53.2172  13.7605 0001145  63.9114 296.1996 15.08845858 71742,6917.862,95.437,540.52,538.935,0.0
50203.0,STARLINK-3257,PAYLOAD,2023-04-02 18:50:00,15.08843712,0.0001135,53.2161,11.084,68.2763,291.835,0.00046669,7.148e-05,0.0,0 STARLINK-3257,1 50203U 21125AZ  23092.78473188  .00007148  00000-0  46669-3 0  9997,2 50203  53.2161  11.0840 0001135  68.2763 291.8350 15.08843712 71832,6917.869,95.437,540.519,538.949,0.0
50203.0,STARLINK-3257,PAYLOAD,2023-04-02 22:00:47,15.08844016,0.0001106,53.2161,10.4886,68.5048,291.6062,0.00034771,5.251e-05,0.0,0 STARLINK-3257,1 50203U 21125AZ  23092.91721111  .00005251  00000-0  34771-3 0  9998,2 50203  53.2161  10.4886 0001106  68.5048 291.6062 15.08844016 74998,6917.868,95.437,540.498,538.968,0.0
50203.0,STARLINK-3257,PAYLOAD,2023-04-03 02:46:56,15.08851376,0.0001206,53.2175,9.5963,74.9079,285.2046,0.00045007,6.884e-05,0.0,0 STARLINK-3257,1 50203U 21125AZ  23093.11592786  .00006884  00000-0  45007-3 0  9992,2 50203  53.2175   9.5963 0001206  74.9079 285.2046 15.08851376 75027,6917.846,95.437,540.545,538.876,0.0
50203.0,STARLINK-3257,PAYLOAD,2023-04-04 02:37:43,15.0885071,0.0001157,53.2176,5.1394,92.4708,267.6417,0.00049774,7.645e-05,0.0,0 STARLINK-3257,1 50203U 21125AZ  23094.10952861  .00007645  00000-0  49774-3 0  9997,2 50203  53.2176   5.1394 0001157  92.4708 267.6417 15.08850710 72032,6917.848,95.437,540.513,538.912,0.0
50203.0,STARLINK-3257,PAYLOAD,2023-04-04 21:42:20,15.08846511,0.0001297,53.2187,1.5735,105.2689,254.8446,0.00014656,2.046e-05,0.0,0 STARLINK-3257,1 50203U 21125AZ  23094.90440757  .00002046  00000-0  14656-3 0  9992,2 50203  53.2187   1.5735 0001297 105.2689 254.8446 15.08846511 75294,6917.86,95.437,540.623,538.828,0.0
50203.0,STARLINK-3257,PAYLOAD,2023-04-05 04:03:52,15.08852759,0.0001245,53.2182,0.3806,88.4823,271.6312,0.00023685,3.485e-05,0.0,0 STARLINK-3257,1 50203U 21125AZ  23095.16936288  .00003485  00000-0  23685-3 0  9990,2 50203  53.2182   0.3806 0001245  88.4823 271.6312 15.08852759 72196,6917.841,95.437,540.568,538.845,0.0
50203.0,STARLINK-3257,PAYLOAD,2023-04-05 07:14:39,15.08848691,0.0001252,53.2179,359.7859,82.5277,277.5858,0.00015258,2.142e-05,0.0,0 STARLINK-3257,1 50203U 21125AZ  23095.30184407  .00002142  00000-0  15258-3 0  9990,2 50203  53.2179 359.7859 0001252  82.5277 277.5858 15.08848691 75358,6917.854,95.437,540.585,538.853,0.0
50203.0,STARLINK-3257,PAYLOAD,2023-04-05 21:33:08,15.08829256,0.0001426,53.2185,357.114,70.8971,289.2176,-0.00017025,-2.996e-05,0.0,0 STARLINK-3257,1 50203U 21125AZ  23095.89801603 -.00002996  00000-0 -17025-3 0  9991,2 50203  53.2185 357.1140 0001426  70.8971 289.2176 15.08829256 72305,6917.913,95.438,540.765,538.792,0.0
50203.0,STARLINK-3257,PAYLOAD,2023-04-06 02:19:17,15.08837021,0.0001469,53.2179,356.2212,82.7517,277.3642,-4.6235e-05,-1.024e-05,0.0,0 STARLINK-3257,1 50203U 21125AZ  23096.09673480 -.00001024  00000-0 -46235-4 0  9991,2 50203  53.2179 356.2212 0001469  82.7517 277.3642 15.08837021 72331,6917.889,95.438,540.771,538.738,0.0
50203.0,STARLINK-3257,PAYLOAD,2023-04-07 02:10:04,15.08849065,0.0001375,53.2175,351.7572,84.5548,275.5601,0.00028192,4.203e-05,0.0,0 STARLINK-3257,1 50203U 21125AZ  23097.09033109  .00004203  00000-0  28192-3 0  9991,2 50203  53.2175 351.7572 0001375  84.5548 275.5601 15.08849065 72488,6917.853,95.437,540.669,538.766,0.0
50203.0,STARLINK-3257,PAYLOAD,2023-04-07 16:28:33,15.08843543,0.0001983,53.2162,349.085,81.6671,278.4546,0.00028756,4.292e-05,0.0,0 STARLINK-3257,1 50203U 21125AZ  23097.68649545  .00004292  00000-0  28756-3 0  9997,2 50203  53.2162 349.0850 0001983  81.6671 278.4546 15.08843543 72578,6917.87,95.437,541.106,538.363,0.0
50203.0,STARLINK-3257,PAYLOAD,2023-04-08 00:25:28,15.08844991,0.0001348,53.217,347.5947,86.2251,273.8895,0.00022061,3.225e-05,0.0,0 STARLINK-3257,1 50203U 21125AZ  23098.01769485  .00003225  00000-0  22061-3 0  9999,2 50203  53.2170 347.5947 0001348  86.2251 273.8895 15.08844991 75765,6917.865,95.437,540.663,538.798,0.0
50203.0,STARLINK-3257,PAYLOAD,2023-04-09 01:51:38,15.08850161,0.0001163,53.2166,342.8355,98.5558,261.5566,0.0002611,3.871e-05,0.0,0 STARLINK-3257,1 50203U 21125AZ  23099.07753183  .00003871  00000-0  26110-3 0  9990,2 50203  53.2166 342.8355 0001163  98.5558 261.5566 15.08850161 72786,6917.849,95.437,540.519,538.91,0.0
50203.0,STARLINK-3257,PAYLOAD,2023-04-09 22:31:39,15.08844574,0.0001395,53.2167,338.9713,84.4582,275.6569,0.00019715,2.851e-05,0.0,0 STARLINK-3257,1 50203U 21125AZ  23099.93865547  .00002851  00000-0  19715-3 0  9993,2 50203  53.2167 338.9713 0001395  84.4582 275.6569 15.08844574 72914,6917.866,95.437,540.696,538.766,0.0
50203.0,STARLINK-3257,PAYLOAD,2023-04-10 01:42:25,15.08847924,0.000115,53.2166,338.3753,84.912,275.2003,0.00023612,3.473e-05,0.0,0 STARLINK-3257,1 50203U 21125AZ  23100.07113369  .00003473  00000-0  23612-3 0  9991,2 50203  53.2166 338.3753 0001150  84.9120 275.2003 15.08847924 76075,6917.856,95.437,540.517,538.926,0.0
50203.0,STARLINK-3257,PAYLOAD,2023-04-10 22:22:26,15.08843286,0.0001058,53.214,334.5116,74.579,285.5319,9.6762e-05,1.253e-05,0.0,0 STARLINK-3257,1 50203U 21125AZ  23100.93225605  .00001253  00000-0  96762-4 0  9994,2 50203  53.2140 334.5116 0001058  74.5790 285.5319 15.08843286 73060,6917.87,95.437,540.467,539.003,0.0
50203.0,STARLINK-3257,PAYLOAD,2023-04-11 01:33:12,15.08847333,0.0001053,53.2147,333.9154,75.4191,284.6917,0.00019801,2.866e-05,0.0,0 STARLINK-3257,1 50203U 21125AZ  23101.06473339  .00002866  00000-0  19801-3 0  9997,2 50203  53.2147 333.9154 0001053  75.4191 284.6917 15.08847333 76224,6917.858,95.437,540.451,538.995,0.0
50203.0,STARLINK-3257,PAYLOAD,2023-04-11 23:48:37,15.08840581,0.000109,53.2167,329.7525,77.6148,282.4966,3.6644e-05,2.95e-06,0.0,0 STARLINK-3257,1 50203U 21125AZ  23101.99209743  .00000295  00000-0  36644-4 0  9994,2 50203  53.2167 329.7525 0001090  77.6148 282.4966 15.08840581 76361,6917.879,95.438,540.498,538.99,0.0
50203.0,STARLINK-3257,PAYLOAD,2023-04-12 23:39:24,15.08842643,0.0001096,53.2175,325.2924,78.1508,281.9607,7.4886e-05,9.04e-06,0.0,0 STARLINK-3257,1 50203U 21125AZ  23102.98569877  .00000904  00000-0  74886-4 0  9998,2 50203  53.2175 325.2924 0001096  78.1508 281.9607 15.08842643 76510,6917.872,95.437,540.496,538.979,0.0
50203.0,STARLINK-3257,PAYLOAD,2023-04-14 01:05:34,15.08848152,0.0001021,53.2159,320.5343,83.3561,276.7547,0.00013554,1.87e-05,0.0,0 STARLINK-3257,1 50203U 21125AZ  23104.04553584  .00001870  00000-0  13554-3 0  9992,2 50203  53.2159 320.5343 0001021  83.3561 276.7547 15.08848152 73535,6917.855,95.437,540.427,539.014,0.0
50203.0,STARLINK-3257,PAYLOAD,2023-04-14 21:45:35,15.08843952,9.34e-05,53.2157,316.67,76.9561,283.1535,-0.00015064,-2.685e-05,0.0,0 STARLINK-3257,1 50203U 21125AZ  23104.90665517 -.00002685  00000-0 -15064-3 0  9992,2 50203  53.2157 316.6700 0000934  76.9561 283.1535 15.08843952 73662,6917.868,95.437,540.379,539.087,0.0
